STARLETTE               
1 07646U 75010A   24115.07258935 -.00000116  00000+0  21578-4 0  9993
2 07646  49.8251 319.6027 0205709 352.7148   7.0770 13.82327181486055
LAGEOS 1                
1 08820U 76039A   24115.49432411  .00000014  00000+0  00000+0 0  9997
2 08820 109.8462 270.8754 0044303 110.4103 253.3294  6.38664894863501
AJISAI (EGS)            
1 16908U 86061A   24115.19877975 -.00000093  00000+0  33020-4 0  9995
2 16908  50.0114  38.1192 0011362 345.4059 183.7907 12.44505001383117
COSMOS 1989 (ETALON 1)  
1 19751U 89001C   24115.52963147  .00000047  00000+0  00000+0 0  9990
2 19751  64.5327  99.0834 0023919 215.9073 321.6633  2.13156216274730
COSMOS 2024 (ETALON 2)  
1 20026U 89039C   24115.50177935 -.00000039  00000+0  00000+0 0  9990
2 20026  65.3591 337.3912 0019280 217.3884 322.1962  2.13204503271782
LAGEOS 2                
1 22195U 92070B   24114.55656443 -.00000009  00000+0  00000+0 0  9995
2 22195  52.6755  42.5005 0137594 203.7734 311.5766  6.47293458744622
STELLA                  
1 22824U 93061B   24115.19112226  .00000017  00000+0  25752-4 0  9996
2 22824  98.8841 160.6194 0006374   5.1272  91.3814 14.27421969593088
LARETS                  
1 27944U 03042F   24115.50986657  .00000364  00000+0  79628-4 0  9992
2 27944  98.3062 255.3456 0011609 328.8819  31.1694 14.63492266 98804
LARES                   
1 38077U 12006A   24115.34013925 -.00000035  00000+0  22163-4 0  9990
2 38077  69.4901 191.1282 0006825  51.5627 308.6011 12.54931513558839
LARES-2                 
1 53105U 22080A   24110.47694924 -.00000013  00000+0  00000+0 0  9992
2 53105  70.1342 215.8134 0005050 151.5976 208.4860  6.38965166 41273
